{"type": "FeatureCollection", "features": [ {"type": "Feature", "properties": {"norad_id": 41785, "name": "ALSAT 1B", "group": "resource", "lat": -25.87995247311528, "lon": 16.24413806380648, "alt_km": 659.915885921575, "timestamp": "2025-12-27T06:41:30.556058+00:00", "meta": {"OBJECT_NAME": "ALSAT 1B", "OBJECT_ID": "2016-059C", "EPOCH": "2025-12-27T00:17:05.824608", "MEAN_MOTION": 14.72091099, "ECCENTRICITY": 0.00106981, "INCLINATION": 97.7812, "RA_OF_ASC_NODE": 12.185, "ARG_OF_PERICENTER": 63.6141, "MEAN_ANOMALY": 296.6164, "EPHEMERIS_TYPE": 0, "CLASSIFICATION_TYPE": "U", "NORAD_CAT_ID": 41785, "ELEMENT_SET_NO": 999, "REV_AT_EPOCH": 49524, "BSTAR": 0.00013344689, "MEAN_MOTION_DOT": 7.93e-06, "MEAN_MOTION_DDOT": 0}, "tle": {"line1": "1 41785U 16059C   25361.01187297  .00000793  00000+0  13345-3 0  9995", "line2": "2 41785  97.7812  12.1850 0010698  63.6141 296.6164 14.72091099495243"}}, "geometry": {"type": "Point", "coordinates": [16.24413806380648, -25.87995247311528]}}, {"type": "Feature", "properties": {"norad_id": 41787, "name": "PATHFINDER 1", "group": "resource", "lat": 14.980668899376399, "lon": -174.51637292920384, "alt_km": 683.1934611708148, "timestamp": "2025-12-27T06:41:30.556068+00:00", "meta": {"OBJECT_NAME": "PATHFINDER 1", "OBJECT_ID": "2016-059E", "EPOCH": "2025-12-26T23:23:56.844672", "MEAN_MOTION": 14.67347016, "ECCENTRICITY": 0.00294986, "INCLINATION": 97.8139, "RA_OF_ASC_NODE": 3.088, "ARG_OF_PERICENTER": 37.6706, "MEAN_ANOMALY": 322.6557, "EPHEMERIS_TYPE": 0, "CLASSIFICATION_TYPE": "U", "NORAD_CAT_ID": 41787, "ELEMENT_SET_NO": 999, "REV_AT_EPOCH": 49445, "BSTAR": 0.00019153607, "MEAN_MOTION_DOT": 1.042e-05, "MEAN_MOTION_DDOT": 0}, "tle": {"line1": "1 41787U 16059E   25360.97496348  .00001042  00000+0  19154-3 0  9993", "line2": "2 41787  97.8139   3.0880 0029498  37.6706 322.6557 14.67347016494451"}}, "geometry": {"type": "Point", "coordinates": [-174.51637292920384, 14.980668899376399]}}, {"type": "Feature", "properties": {"norad_id": 41790, "name": "SCATSAT 1", "group": "resource", "lat": 44.12248399829657, "lon": 50.14585151263624, "alt_km": 597.2993108501314, "timestamp": "2025-12-27T06:41:30.556079+00:00", "meta": {"OBJECT_NAME": "SCATSAT 1", "OBJECT_ID": "2016-059H", "EPOCH": "2025-12-26T14:15:15.732576", "MEAN_MOTION": 14.78980653, "ECCENTRICITY": 0.005643, "INCLINATION": 98.1445, "RA_OF_ASC_NODE": 57.4361, "ARG_OF_PERICENTER": 84.3615, "MEAN_ANOMALY": 276.4027, "EPHEMERIS_TYPE": 0, "CLASSIFICATION_TYPE": "U", "NORAD_CAT_ID": 41790, "ELEMENT_SET_NO": 999, "REV_AT_EPOCH": 7607, "BSTAR": 0.00021562, "MEAN_MOTION_DOT": 1.578e-05, "MEAN_MOTION_DDOT": 0}, "tle": {"line1": "1 41790U 16059H   25360.59393209  .00001578  00000+0  21562-3 0  9997", "line2": "2 41790  98.1445  57.4361 0056430  84.3615 276.4027 14.78980653 76074"}}, "geometry": {"type": "Point", "coordinates": [50.14585151263624, 44.12248399829657]}}, {"type": "Feature", "properties": {"norad_id": 41875, "name": "GOKTURK 1A", "group": "resource", "lat": 4.301060551596265, "lon": -107.16646100146966, "alt_km": 686.348049572679, "timestamp": "2025-12-27T06:41:30.556089+00:00", "meta": {"OBJECT_NAME": "GOKTURK 1A", "OBJECT_ID": "2016-073A", "EPOCH": "2025-12-27T00:06:19.193184", "MEAN_MOTION": 14.62796567, "ECCENTRICITY": 0.0001295, "INCLINATION": 98.1422, "RA_OF_ASC_NODE": 253.1798, "ARG_OF_PERICENTER": 81.3371, "MEAN_ANOMALY": 278.7977, "EPHEMERIS_TYPE": 0, "CLASSIFICATION_TYPE": "U", "NORAD_CAT_ID": 41875, "ELEMENT_SET_NO": 999, "REV_AT_EPOCH": 48365, "BSTAR": 0.00014990765, "MEAN_MOTION_DOT": 7.18e-06, "MEAN_MOTION_DDOT": 0}, "tle": {"line1": "1 41875U 16073A   25361.00438881  .00000718  00000+0  14991-3 0  9993", "line2": "2 41875  98.1422 253.1798 0001295  81.3371 278.7977 14.62796567483654"}}, "geometry": {"type": "Point", "coordinates": [-107.16646100146966, 4.301060551596265]}}, {"type": "Feature", "properties": {"norad_id": 41877, "name": "RESOURCESAT-2A", "group": "resource", "lat": 60.12551633046788, "lon": 55.45349069554764, "alt_km": 814.8849599021769, "timestamp": "2025-12-27T06:41:30.556099+00:00", "meta": {"OBJECT_NAME": "RESOURCESAT-2A", "OBJECT_ID": "2016-074A", "EPOCH": "2025-12-26T21:57:30.062592", "MEAN_MOTION": 14.21605079, "ECCENTRICITY": 0.00016957, "INCLINATION": 98.7733, "RA_OF_ASC_NODE": 70.687, "ARG_OF_PERICENTER": 194.9389, "MEAN_ANOMALY": 165.1739, "EPHEMERIS_TYPE": 0, "CLASSIFICATION_TYPE": "U", "NORAD_CAT_ID": 41877, "ELEMENT_SET_NO": 999, "REV_AT_EPOCH": 46982, "BSTAR": 2.9773257e-05, "MEAN_MOTION_DOT": 2.1e-07, "MEAN_MOTION_DDOT": 0}, "tle": {"line1": "1 41877U 16074A   25360.91493128  .00000021  00000+0  29773-4 0  9992", "line2": "2 41877  98.7733  70.6870 0001695 194.9389 165.1739 14.21605079469824"}}, "geometry": {"type": "Point", "coordinates": [55.45349069554764, 60.12551633046788]}}, {"type": "Feature", "properties": {"norad_id": 41948, "name": "CARTOSAT-2D", "group": "resource", "lat": 48.726202612696945, "lon": -112.88867380746446, "alt_km": 500.3177058067304, "timestamp": "2025-12-27T06:41:30.556109+00:00", "meta": {"OBJECT_NAME": "CARTOSAT-2D", "OBJECT_ID": "2017-008A", "EPOCH": "2025-12-26T23:47:45.295008", "MEAN_MOTION": 15.1920471, "ECCENTRICITY": 0.00054543, "INCLINATION": 97.4367, "RA_OF_ASC_NODE": 58.27, "ARG_OF_PERICENTER": 114.0009, "MEAN_ANOMALY": 246.1797, "EPHEMERIS_TYPE": 0, "CLASSIFICATION_TYPE": "U", "NORAD_CAT_ID": 41948, "ELEMENT_SET_NO": 999, "REV_AT_EPOCH": 49143, "BSTAR": 0.00020230287, "MEAN_MOTION_DOT": 4.191e-05, "MEAN_MOTION_DDOT": 0}, "tle": {"line1": "1 41948U 17008A   25360.99149647  .00004191  00000+0  20230-3 0  9991", "line2": "2 41948  97.4367  58.2700 0005454 114.0009 246.1797 15.19204710491436"}}, "geometry": {"type": "Point", "coordinates": [-112.88867380746446, 48.726202612696945]}}, {"type": "Feature", "properties": {"norad_id": 42063, "name": "SENTINEL-2B", "group": "resource", "lat": 28.241262220802525, "lon": -101.83514895971905, "alt_km": 787.3232586701924, "timestamp": "2025-12-27T06:41:30.556119+00:00", "meta": {"OBJECT_NAME": "SENTINEL-2B", "OBJECT_ID": "2017-013A", "EPOCH": "2025-12-26T23:16:25.617216", "MEAN_MOTION": 14.30816276, "ECCENTRICITY": 0.00011785, "INCLINATION": 98.5694, "RA_OF_ASC_NODE": 73.2147, "ARG_OF_PERICENTER": 89.5005, "MEAN_ANOMALY": 270.6313, "EPHEMERIS_TYPE": 0, "CLASSIFICATION_TYPE": "U", "NORAD_CAT_ID": 42063, "ELEMENT_SET_NO": 999, "REV_AT_EPOCH": 46001, "BSTAR": 6.790273e-05, "MEAN_MOTION_DOT": 1.34e-06, "MEAN_MOTION_DDOT": 0}, "tle": {"line1": "1 42063U 17013A   25360.96974094  .00000134  00000+0  67903-4 0  9997", "line2": "2 42063  98.5694  73.2147 0001178  89.5005 270.6313 14.30816276460017"}}, "geometry": {"type": "Point", "coordinates": [-101.83514895971905, 28.241262220802525]}}, {"type": "Feature", "properties": {"norad_id": 42767, "name": "CARTOSAT-2E", "group": "resource", "lat": 39.42099813600484, "lon": 52.495540858333364, "alt_km": 506.329770374301, "timestamp": "2025-12-27T06:41:30.556129+00:00", "meta": {"OBJECT_NAME": "CARTOSAT-2E", "OBJECT_ID": "2017-036C", "EPOCH": "2025-12-26T22:36:47.382048", "MEAN_MOTION": 15.19211729, "ECCENTRICITY": 0.00026911, "INCLINATION": 97.4536, "RA_OF_ASC_NODE": 58.3415, "ARG_OF_PERICENTER": 166.2171, "MEAN_ANOMALY": 193.9137, "EPHEMERIS_TYPE": 0, "CLASSIFICATION_TYPE": "U", "NORAD_CAT_ID": 42767, "ELEMENT_SET_NO": 999, "REV_AT_EPOCH": 47199, "BSTAR": 0.00020270436, "MEAN_MOTION_DOT": 4.199e-05, "MEAN_MOTION_DDOT": 0}, "tle": {"line1": "1 42767U 17036C   25360.94221507  .00004199  00000+0  20270-3 0  9995", "line2": "2 42767  97.4536  58.3415 0002691 166.2171 193.9137 15.19211729471991"}}, "geometry": {"type": "Point", "coordinates": [52.495540858333364, 39.42099813600484]}}, {"type": "Feature", "properties": {"norad_id": 42920, "name": "FORMOSAT-5", "group": "resource", "lat": 60.050999814160484, "lon": -90.12216888734545, "alt_km": 722.0767170500212, "timestamp": "2025-12-27T06:41:30.556139+00:00", "meta": {"OBJECT_NAME": "FORMOSAT-5", "OBJECT_ID": "2017-049A", "EPOCH": "2025-12-26T21:52:07.442400", "MEAN_MOTION": 14.50768884, "ECCENTRICITY": 0.00098621, "INCLINATION": 98.2437, "RA_OF_ASC_NODE": 74.9442, "ARG_OF_PERICENTER": 252.9801, "MEAN_ANOMALY": 107.0314, "EPHEMERIS_TYPE": 0, "CLASSIFICATION_TYPE": "U", "NORAD_CAT_ID": 42920, "ELEMENT_SET_NO": 999, "REV_AT_EPOCH": 44169, "BSTAR": 8.2406101e-05, "MEAN_MOTION_DOT": 2.81e-06, "MEAN_MOTION_DDOT": 0}, "tle": {"line1": "1 42920U 17049A   25360.91119725  .00000281  00000+0  82406-4 0  9993", "line2": "2 42920  98.2437  74.9442 0009862 252.9801 107.0314 14.50768884441695"}}, "geometry": {"type": "Point", "coordinates": [-90.12216888734545, 60.050999814160484]}}, {"type": "Feature", "properties": {"norad_id": 42969, "name": "SENTINEL-5P", "group": "resource", "lat": -40.84912034032026, "lon": -52.584957421011744, "alt_km": 833.9741970458617, "timestamp": "2025-12-27T06:41:30.556150+00:00", "meta": {"OBJECT_NAME": "SENTINEL-5P", "OBJECT_ID": "2017-064A", "EPOCH": "2025-12-26T19:02:42.148896", "MEAN_MOTION": 14.19520998, "ECCENTRICITY": 0.0001058, "INCLINATION": 98.7802, "RA_OF_ASC_NODE": 299.2542, "ARG_OF_PERICENTER": 91.0768, "MEAN_ANOMALY": 269.0529, "EPHEMERIS_TYPE": 0, "CLASSIFICATION_TYPE": "U", "NORAD_CAT_ID": 42969, "ELEMENT_SET_NO": 999, "REV_AT_EPOCH": 42510, "BSTAR": 7.0164313e-05, "MEAN_MOTION_DOT": 1.04e-06, "MEAN_MOTION_DDOT": 0}, "tle": {"line1": "1 42969U 17064A   25360.79354339  .00000104  00000+0  70164-4 0  9993", "line2": "2 42969  98.7802 299.2542 0001058  91.0768 269.0529 14.19520998425107"}}, "geometry": {"type": "Point", "coordinates": [-52.584957421011744, -40.84912034032026]}}]}